     3.02           N: GNSS NAV DATA    E: GALILEO          RINEX VERSION / TYPE
cnvtToRINEX 2.29.0  REGINA              06-Jan-16 00:45 UTC PGM / RUN BY / DATE 
----------------------------------------------------------- COMMENT             
GAL    0.8525D+02 -0.8789D+00  0.7813D-02                   IONOSPHERIC CORR    
GAUT -0.3725290298D-08 0.355271368D-14 172800 1878          TIME SYSTEM CORR    
                                                            END OF HEADER       
E26 2016 01 05 02 20 00 0.278384803096D-02 0.401001898354D-09 0.000000000000D+00
     0.460000000000D+02-0.297500000000D+02 0.297440961038D-08-0.127968744062D+01
    -0.144913792610D-05 0.359829631634D-03 0.967644155025D-05 0.544059747887D+04
     0.181200000000D+06 0.409781932831D-07-0.262483646275D+00-0.372529029846D-08
     0.964274383956D+00 0.134750000000D+03-0.287736509778D+01-0.543915513407D-08
     0.378587198248D-09 0.513000000000D+03 0.187800000000D+04 0.000000000000D+00
     0.122000000000D+03 0.000000000000D+00 0.109430402517D-07 0.000000000000D+00
     0.181894000000D+06 0.000000000000D+00 0.000000000000D+00 0.000000000000D+00
E19 2016 01 05 02 20 00-0.100278994069D-04-0.952127265919D-12 0.000000000000D+00
     0.460000000000D+02-0.343750000000D+00 0.316263173631D-08-0.300360373085D+01
     0.856816768646D-07 0.259118387476D-03 0.106990337372D-04 0.544061682510D+04
     0.181200000000D+06-0.167638063431D-07 0.182776910800D+01-0.484287738800D-07
     0.958671665186D+00 0.105437500000D+03 0.235426777003D+01-0.550630078810D-08
    -0.358586365133D-09 0.513000000000D+03 0.187800000000D+04 0.000000000000D+00
     0.122000000000D+03 0.000000000000D+00 0.186264514923D-08 0.000000000000D+00
     0.181894000000D+06 0.000000000000D+00 0.000000000000D+00 0.000000000000D+00
E26 2016 01 05 02 20 00 0.278384803096D-02 0.401001898354D-09 0.000000000000D+00
     0.460000000000D+02-0.297500000000D+02 0.297440961038D-08-0.127968744062D+01
    -0.144913792610D-05 0.359829631634D-03 0.967644155025D-05 0.544059747887D+04
     0.181200000000D+06 0.409781932831D-07-0.262483646275D+00-0.372529029846D-08
     0.964274383956D+00 0.134750000000D+03-0.287736509778D+01-0.543915513407D-08
     0.378587198248D-09 0.516000000000D+03 0.187800000000D+04 0.000000000000D+00
     0.122000000000D+03 0.000000000000D+00 0.109430402517D-07 0.000000000000D+00
     0.181885000000D+06 0.000000000000D+00 0.000000000000D+00 0.000000000000D+00
E19 2016 01 05 02 20 00-0.100278994069D-04-0.952127265919D-12 0.000000000000D+00
     0.460000000000D+02-0.343750000000D+00 0.316263173631D-08-0.300360373085D+01
     0.856816768646D-07 0.259118387476D-03 0.106990337372D-04 0.544061682510D+04
     0.181200000000D+06-0.167638063431D-07 0.182776910800D+01-0.484287738800D-07
     0.958671665186D+00 0.105437500000D+03 0.235426777003D+01-0.550630078810D-08
    -0.358586365133D-09 0.516000000000D+03 0.187800000000D+04 0.000000000000D+00
     0.122000000000D+03 0.000000000000D+00 0.186264514923D-08 0.000000000000D+00
     0.181885000000D+06 0.000000000000D+00 0.000000000000D+00 0.000000000000D+00
E26 2016 01 05 02 20 00 0.278384791454D-02 0.400859789806D-09 0.000000000000D+00
     0.460000000000D+02-0.297500000000D+02 0.297440961038D-08-0.127968744062D+01
    -0.144913792610D-05 0.359829631634D-03 0.967644155025D-05 0.544059747887D+04
     0.181200000000D+06 0.409781932831D-07-0.262483646275D+00-0.372529029846D-08
     0.964274383956D+00 0.134750000000D+03-0.287736509778D+01-0.543915513407D-08
     0.378587198248D-09 0.258000000000D+03 0.187800000000D+04 0.000000000000D+00
     0.107000000000D+03 0.000000000000D+00 0.000000000000D+00 0.000000000000D+00
     0.181930000000D+06 0.000000000000D+00 0.000000000000D+00 0.000000000000D+00
E19 2016 01 05 02 20 00-0.100283068605D-04-0.119371179608D-11 0.000000000000D+00
     0.460000000000D+02-0.343750000000D+00 0.316263173631D-08-0.300360373085D+01
     0.856816768646D-07 0.259118387476D-03 0.106990337372D-04 0.544061682510D+04
     0.181200000000D+06-0.167638063431D-07 0.182776910800D+01-0.484287738800D-07
     0.958671665186D+00 0.105437500000D+03 0.235426777003D+01-0.550630078810D-08
    -0.358586365133D-09 0.258000000000D+03 0.187800000000D+04 0.000000000000D+00
     0.107000000000D+03 0.000000000000D+00 0.000000000000D+00 0.000000000000D+00
     0.181930000000D+06 0.000000000000D+00 0.000000000000D+00 0.000000000000D+00
E26 2016 01 05 02 30 00 0.278408866143D-02 0.401001898354D-09 0.000000000000D+00
     0.470000000000D+02-0.285000000000D+02 0.298333855374D-08-0.120566624790D+01
    -0.140257179737D-05 0.359718804248D-03 0.969506800175D-05 0.544059713554D+04
     0.181800000000D+06 0.409781932831D-07-0.262486880786D+00 0.186264514923D-08
     0.964274600468D+00 0.134281250000D+03-0.287700046545D+01-0.544308386915D-08
     0.376444251843D-09 0.513000000000D+03 0.187800000000D+04 0.000000000000D+00
     0.122000000000D+03 0.000000000000D+00 0.109430402517D-07 0.000000000000D+00
     0.182494000000D+06 0.000000000000D+00 0.000000000000D+00 0.000000000000D+00
E19 2016 01 05 02 30 00-0.100284232758D-04-0.952127265919D-12 0.000000000000D+00
     0.470000000000D+02 0.562500000000D+00 0.316441752498D-08-0.292973029724D+01
     0.130385160446D-06 0.259338645265D-03 0.107903033495D-04 0.544061630821D+04
     0.181800000000D+06-0.130385160446D-07 0.182776578571D+01-0.521540641785D-07
     0.958671469155D+00 0.103656250000D+03 0.235477947975D+01-0.550165773756D-08
    -0.357514891930D-09 0.513000000000D+03 0.187800000000D+04 0.000000000000D+00
     0.122000000000D+03 0.000000000000D+00 0.186264514923D-08 0.000000000000D+00
     0.182494000000D+06 0.000000000000D+00 0.000000000000D+00 0.000000000000D+00
E26 2016 01 05 02 30 00 0.278408866143D-02 0.401001898354D-09 0.000000000000D+00
     0.470000000000D+02-0.285000000000D+02 0.298333855374D-08-0.120566624790D+01
    -0.140257179737D-05 0.359718804248D-03 0.969506800175D-05 0.544059713554D+04
     0.181800000000D+06 0.409781932831D-07-0.262486880786D+00 0.186264514923D-08
     0.964274600468D+00 0.134281250000D+03-0.287700046545D+01-0.544308386915D-08
     0.376444251843D-09 0.516000000000D+03 0.187800000000D+04 0.000000000000D+00
     0.122000000000D+03 0.000000000000D+00 0.109430402517D-07 0.000000000000D+00
     0.182485000000D+06 0.000000000000D+00 0.000000000000D+00 0.000000000000D+00
E19 2016 01 05 02 30 00-0.100284232758D-04-0.952127265919D-12 0.000000000000D+00
     0.470000000000D+02 0.562500000000D+00 0.316441752498D-08-0.292973029724D+01
     0.130385160446D-06 0.259338645265D-03 0.107903033495D-04 0.544061630821D+04
     0.181800000000D+06-0.130385160446D-07 0.182776578571D+01-0.521540641785D-07
     0.958671469155D+00 0.103656250000D+03 0.235477947975D+01-0.550165773756D-08
    -0.357514891930D-09 0.516000000000D+03 0.187800000000D+04 0.000000000000D+00
     0.122000000000D+03 0.000000000000D+00 0.186264514923D-08 0.000000000000D+00
     0.182485000000D+06 0.000000000000D+00 0.000000000000D+00 0.000000000000D+00
E26 2016 01 05 02 30 00 0.278408831218D-02 0.400859789806D-09 0.000000000000D+00
     0.470000000000D+02-0.285000000000D+02 0.298333855374D-08-0.120566624790D+01
    -0.140257179737D-05 0.359718804248D-03 0.969506800175D-05 0.544059713554D+04
     0.181800000000D+06 0.409781932831D-07-0.262486880786D+00 0.186264514923D-08
     0.964274600468D+00 0.134281250000D+03-0.287700046545D+01-0.544308386915D-08
     0.376444251843D-09 0.258000000000D+03 0.187800000000D+04 0.000000000000D+00
     0.107000000000D+03 0.000000000000D+00 0.000000000000D+00 0.000000000000D+00
     0.182530000000D+06 0.000000000000D+00 0.000000000000D+00 0.000000000000D+00
E19 2016 01 05 02 30 00-0.100290635601D-04-0.119371179608D-11 0.000000000000D+00
     0.470000000000D+02 0.562500000000D+00 0.316441752498D-08-0.292973029724D+01
     0.130385160446D-06 0.259338645265D-03 0.107903033495D-04 0.544061630821D+04
     0.181800000000D+06-0.130385160446D-07 0.182776578571D+01-0.521540641785D-07
     0.958671469155D+00 0.103656250000D+03 0.235477947975D+01-0.550165773756D-08
    -0.357514891930D-09 0.258000000000D+03 0.187800000000D+04 0.000000000000D+00
     0.107000000000D+03 0.000000000000D+00 0.000000000000D+00 0.000000000000D+00
     0.182530000000D+06 0.000000000000D+00 0.000000000000D+00 0.000000000000D+00
E24 2016 01 05 02 30 00 0.146566116018D-02 0.401016109208D-09 0.000000000000D+00
     0.470000000000D+02 0.433437500000D+02 0.284226124873D-08 0.207136114807D+01
     0.207126140594D-05 0.413238420151D-03 0.159442424774D-05 0.544061883545D+04
     0.181800000000D+06 0.316649675369D-07-0.236520356543D+01 0.260770320892D-07
     0.100098759613D+01 0.325718750000D+03-0.511456875432D-01-0.566416450662D-08
     0.385730352932D-10 0.513000000000D+03 0.187800000000D+04 0.000000000000D+00
     0.122000000000D+03 0.640000000000D+02 0.582076609135D-07 0.000000000000D+00
     0.183034000000D+06 0.000000000000D+00 0.000000000000D+00 0.000000000000D+00
E24 2016 01 05 02 30 00 0.146566116018D-02 0.401016109208D-09 0.000000000000D+00
     0.470000000000D+02 0.433437500000D+02 0.284226124873D-08 0.207136114807D+01
     0.207126140594D-05 0.413238420151D-03 0.159442424774D-05 0.544061883545D+04
     0.181800000000D+06 0.316649675369D-07-0.236520356543D+01 0.260770320892D-07
     0.100098759613D+01 0.325718750000D+03-0.511456875432D-01-0.566416450662D-08
     0.385730352932D-10 0.516000000000D+03 0.187800000000D+04 0.000000000000D+00
     0.122000000000D+03 0.640000000000D+02 0.582076609135D-07 0.000000000000D+00
     0.183025000000D+06 0.000000000000D+00 0.000000000000D+00 0.000000000000D+00
